NORAD_CAT_ID,OBJECT_NAME,OBJECT_TYPE,EPOCH,MEAN_MOTION,ECCENTRICITY,INCLINATION,RA_OF_ASC_NODE,ARG_OF_PERICENTER,MEAN_ANOMALY,BSTAR,MEAN_MOTION_DOT,MEAN_MOTION_DDOT,TLE_LINE0,TLE_LINE1,TLE_LINE2,SEMIMAJOR_AXIS,PERIOD,APOGEE,PERIGEE,DECAYED
53546.0,STARLINK-4477,PAYLOAD,2023-06-07 01:17:18,15.08838586,5.72e-05,53.2168,252.6185,102.2947,257.8109,1.0139e-05,-1.26e-06,0.0,0 STARLINK-4477,1 53546U 22101V   23158.05368120 -.00000126  00000-0  10139-4 0  9991,2 53546  53.2168 252.6185 0000572 102.2947 257.8109 15.08838586 44482,6917.885,95.438,540.145,539.354,0.0
53546.0,STARLINK-4477,PAYLOAD,2023-06-07 09:14:13,15.08839015,5.9e-05,53.2166,251.1319,96.4976,263.6083,1.5445e-05,-4.2e-07,0.0,0 STARLINK-4477,1 53546U 22101V   23158.38488123 -.00000042  00000-0  15445-4 0  9995,2 53546  53.2166 251.1319 0000590  96.4976 263.6083 15.08839015 44539,6917.883,95.438,540.157,539.34,0.0
53546.0,STARLINK-4477,PAYLOAD,2023-06-08 09:05:00,15.08839932,9.65e-05,53.2156,246.6712,89.4878,270.6225,0.00014798,2.068e-05,0.0,0 STARLINK-4477,1 53546U 22101V   23159.37848028  .00002068  00000-0  14798-3 0  9997,2 53546  53.2156 246.6712 0000965  89.4878 270.6225 15.08839932 44683,6917.881,95.438,540.413,539.078,0.0
53546.0,STARLINK-4477,PAYLOAD,2023-06-08 12:15:46,15.08845454,9.23e-05,53.2148,246.0753,109.985,250.1242,0.0001738,2.48e-05,0.0,0 STARLINK-4477,1 53546U 22101V   23159.51095894  .00002480  00000-0  17380-3 0  9996,2 53546  53.2148 246.0753 0000923 109.9850 250.1242 15.08845454 44706,6917.864,95.437,540.367,539.09,0.0
53546.0,STARLINK-4477,PAYLOAD,2023-06-08 15:26:32,15.08850294,9.43e-05,53.2148,245.48,115.4317,244.6773,0.00024248,3.574e-05,0.0,0 STARLINK-4477,1 53546U 22101V   23159.64343641  .00003574  00000-0  24248-3 0  9992,2 53546  53.2148 245.4800 0000943 115.4317 244.6773 15.08850294 44721,6917.849,95.437,540.366,539.062,0.0
53546.0,STARLINK-4477,PAYLOAD,2023-06-09 12:06:34,15.08845001,8.91e-05,53.2142,241.6149,93.9337,266.1757,0.000218,3.184e-05,0.0,0 STARLINK-4477,1 53546U 22101V   23160.50456055  .00003184  00000-0  21800-3 0  9991,2 53546  53.2142 241.6149 0000891  93.9337 266.1757 15.08845001 44858,6917.865,95.437,540.346,539.114,0.0
53546.0,STARLINK-4477,PAYLOAD,2023-06-10 05:35:48,15.0883848,9.68e-05,53.2138,238.3462,84.4157,275.6946,5.6316e-05,6.09e-06,0.0,0 STARLINK-4477,1 53546U 22101V   23161.23320368  .00000609  00000-0  56316-4 0  9999,2 53546  53.2138 238.3462 0000968  84.4157 275.6946 15.08838480 44964,6917.885,95.438,540.42,539.08,0.0
53546.0,STARLINK-4477,PAYLOAD,2023-06-10 11:57:21,15.08838528,0.000106,53.2137,237.1555,91.7852,268.3261,4.6766e-05,4.57e-06,0.0,0 STARLINK-4477,1 53546U 22101V   23161.49816365  .00000457  00000-0  46766-4 0  9993,2 53546  53.2137 237.1555 0001060  91.7852 268.3261 15.08838528 45008,6917.885,95.438,540.483,539.017,0.0
53546.0,STARLINK-4477,PAYLOAD,2023-06-10 21:29:40,15.08839222,8.45e-05,53.2142,235.3708,87.169,272.9399,1.0846e-05,-1.15e-06,0.0,0 STARLINK-4477,1 53546U 22101V   23161.89560406 -.00000115  00000-0  10846-4 0  9991,2 53546  53.2142 235.3708 0000845  87.1690 272.9399 15.08839222 45064,6917.883,95.438,540.332,539.163,0.0
53546.0,STARLINK-4477,PAYLOAD,2023-06-11 03:51:12,15.08838601,8.55e-05,53.2148,234.1826,88.0339,272.0751,2.1047e-05,4.7e-07,0.0,0 STARLINK-4477,1 53546U 22101V   23162.16056565  .00000047  00000-0  21047-4 0  9996,2 53546  53.2148 234.1826 0000855  88.0339 272.0751 15.08838601 45107,6917.885,95.438,540.341,539.158,0.0
53546.0,STARLINK-4477,PAYLOAD,2023-06-11 14:58:54,15.08844832,8.91e-05,53.2146,232.1014,88.9163,271.1931,0.00011638,1.565e-05,0.0,0 STARLINK-4477,1 53546U 22101V   23162.62424223  .00001565  00000-0  11638-3 0  9997,2 53546  53.2146 232.1014 0000891  88.9163 271.1931 15.08844832 45176,6917.866,95.437,540.347,539.114,0.0
53546.0,STARLINK-4477,PAYLOAD,2023-06-11 21:20:27,15.08843824,8.69e-05,53.2142,230.9111,86.1542,273.9549,0.00010233,1.341e-05,0.0,0 STARLINK-4477,1 53546U 22101V   23162.88920267  .00001341  00000-0  10233-3 0  9996,2 53546  53.2142 230.9111 0000869  86.1542 273.9549 15.08843824 45212,6917.869,95.437,540.335,539.133,0.0
53546.0,STARLINK-4477,PAYLOAD,2023-06-12 11:38:55,15.08839164,9.21e-05,53.2144,228.2349,89.415,270.6948,9.0874e-05,1.159e-05,0.0,0 STARLINK-4477,1 53546U 22101V   23163.48536557  .00001159  00000-0  90874-4 0  9995,2 53546  53.2144 228.2349 0000921  89.4150 270.6948 15.08839164 45306,6917.883,95.438,540.385,539.111,0.0
53546.0,STARLINK-4477,PAYLOAD,2023-06-12 21:11:14,15.08838435,8.67e-05,53.2141,226.4513,91.2568,268.8524,6.9244e-05,8.14e-06,0.0,0 STARLINK-4477,1 53546U 22101V   23163.88280644  .00000814  00000-0  69244-4 0  9996,2 53546  53.2141 226.4513 0000867  91.2568 268.8524 15.08838435 45364,6917.885,95.438,540.35,539.15,0.0
53546.0,STARLINK-4477,PAYLOAD,2023-06-13 21:02:01,15.08841282,7.92e-05,53.214,221.9912,92.8866,267.2217,-0.00012657,-2.301e-05,0.0,0 STARLINK-4477,1 53546U 22101V   23164.87640585 -.00002301  00000-0 -12657-3 0  9990,2 53546  53.2140 221.9912 0000792  92.8866 267.2217 15.08841282 45514,6917.876,95.437,540.289,539.194,0.0
53546.0,STARLINK-4477,PAYLOAD,2023-06-14 04:58:57,15.08838939,9.32e-05,53.2144,220.5041,86.2976,273.8123,9.0753e-05,1.157e-05,0.0,0 STARLINK-4477,1 53546U 22101V   23165.20760929  .00001157  00000-0  90753-4 0  9993,2 53546  53.2144 220.5041 0000932  86.2976 273.8123 15.08838939 45560,6917.884,95.438,540.393,539.104,0.0
53546.0,STARLINK-4477,PAYLOAD,2023-06-14 20:52:48,15.08841716,9.51e-05,53.2153,217.5298,85.6324,274.4777,0.00010841,1.438e-05,0.0,0 STARLINK-4477,1 53546U 22101V   23165.87000872  .00001438  00000-0  10841-3 0  9991,2 53546  53.2153 217.5298 0000951  85.6324 274.4777 15.08841716 45661,6917.875,95.437,540.398,539.082,0.0
53546.0,STARLINK-4477,PAYLOAD,2023-06-15 03:14:21,15.08838392,9.89e-05,53.2152,216.3403,86.1583,273.9522,0.00012941,1.772e-05,0.0,0 STARLINK-4477,1 53546U 22101V   23166.13497099  .00001772  00000-0  12941-3 0  9996,2 53546  53.2152 216.3403 0000989  86.1583 273.9522 15.08838392 45702,6917.885,95.438,540.434,539.066,0.0
53546.0,STARLINK-4477,PAYLOAD,2023-06-15 09:35:54,15.08840756,9.92e-05,53.2154,215.151,84.4933,275.6172,0.00010343,1.359e-05,0.0,0 STARLINK-4477,1 53546U 22101V   23166.39993072  .00001359  00000-0  10343-3 0  9991,2 53546  53.2154 215.1510 0000992  84.4933 275.6172 15.08840756 45745,6917.878,95.438,540.429,539.057,0.0
53546.0,STARLINK-4477,PAYLOAD,2023-06-16 09:26:40,15.08849271,9.58e-05,53.2148,210.6899,87.0875,273.0227,0.0001395,1.934e-05,0.0,0 STARLINK-4477,1 53546U 22101V   23167.39352296  .00001934  00000-0  13950-3 0  9995,2 53546  53.2148 210.6899 0000958  87.0875 273.0227 15.08849271 45894,6917.852,95.437,540.38,539.054,0.0
53546.0,STARLINK-4477,PAYLOAD,2023-06-17 09:17:28,15.08838053,0.0001019,53.2138,206.229,90.3145,269.7964,9.174e-05,1.172e-05,0.0,0 STARLINK-4477,1 53546U 22101V   23168.38712989  .00001172  00000-0  91740-4 0  9992,2 53546  53.2138 206.2290 0001019  90.3145 269.7964 15.08838053 46049,6917.886,95.438,540.456,539.046,0.0
53546.0,STARLINK-4477,PAYLOAD,2023-06-18 09:08:15,15.08837577,9.69e-05,53.2155,201.7687,94.5436,265.5667,4.7846e-06,-2.12e-06,0.0,0 STARLINK-4477,1 53546U 22101V   23169.38073285 -.00000212  00000-0  47846-5 0  9996,2 53546  53.2155 201.7687 0000969  94.5436 265.5667 15.08837577 46190,6917.888,95.438,540.423,539.082,0.0
53546.0,STARLINK-4477,PAYLOAD,2023-06-18 18:40:34,15.08840376,9.61e-05,53.2156,199.9852,91.3978,268.7124,-3.5812e-05,-8.58e-06,0.0,0 STARLINK-4477,1 53546U 22101V   23169.77817234 -.00000858  00000-0 -35812-4 0  9995,2 53546  53.2156 199.9852 0000961  91.3978 268.7124 15.08840376 46252,6917.879,95.438,540.409,539.079,0.0
53546.0,STARLINK-4477,PAYLOAD,2023-06-19 10:34:25,15.08838545,9.4e-05,53.215,197.0106,93.3176,266.7923,0.0001028,1.349e-05,0.0,0 STARLINK-4477,1 53546U 22101V   23170.44057214  .00001349  00000-0  10280-3 0  9990,2 53546  53.2150 197.0106 0000940  93.3176 266.7923 15.08838545 46357,6917.885,95.438,540.4,539.1,0.0
53546.0,STARLINK-4477,PAYLOAD,2023-06-19 18:31:21,15.08835577,9.25e-05,53.2148,195.5238,90.6733,269.4365,8.98e-05,1.142e-05,0.0,0 STARLINK-4477,1 53546U 22101V   23170.77177522  .00001142  00000-0  89800-4 0  9997,2 53546  53.2148 195.5238 0000925  90.6733 269.4365 15.08835577 46403,6917.894,95.438,540.399,539.119,0.0
53546.0,STARLINK-4477,PAYLOAD,2023-06-20 00:52:53,15.08835713,9.39e-05,53.2147,194.3343,90.9141,269.1959,8.5219e-05,1.069e-05,0.0,0 STARLINK-4477,1 53546U 22101V   23171.03673611  .00001069  00000-0  85219-4 0  9995,2 53546  53.2147 194.3343 0000939  90.9141 269.1959 15.08835713 46449,6917.893,95.438,540.408,539.109,0.0
53546.0,STARLINK-4477,PAYLOAD,2023-06-21 08:40:36,15.08841461,9.7e-05,53.2148,188.3867,83.9307,276.1796,7.7906e-05,9.52e-06,0.0,0 STARLINK-4477,1 53546U 22101V   23172.36153621  .00000952  00000-0  77906-4 0  9990,2 53546  53.2148 188.3867 0000970  83.9307 276.1796 15.08841461 46641,6917.876,95.437,540.412,539.07,0.0
53546.0,STARLINK-4477,PAYLOAD,2023-06-21 18:12:55,15.08840752,9.83e-05,53.2147,186.6027,84.6031,275.5074,6.6793e-05,7.75e-06,0.0,0 STARLINK-4477,1 53546U 22101V   23172.75897688  .00000775  00000-0  66793-4 0  9996,2 53546  53.2147 186.6027 0000983  84.6031 275.5074 15.08840752 46706,6917.878,95.438,540.423,539.063,0.0
53546.0,STARLINK-4477,PAYLOAD,2023-06-22 10:06:47,15.08839658,9.7e-05,53.2148,183.6287,85.5952,274.5151,9.1534e-05,1.169e-05,0.0,0 STARLINK-4477,1 53546U 22101V   23173.42137791  .00001169  00000-0  91534-4 0  9992,2 53546  53.2148 183.6287 0000970  85.5952 274.5151 15.08839658 46809,6917.881,95.438,540.417,539.075,0.0
53546.0,STARLINK-4477,PAYLOAD,2023-06-23 17:54:29,15.08843318,9.53e-05,53.2147,177.6811,84.0156,276.0945,6.8931e-05,8.1e-06,0.0,0 STARLINK-4477,1 53546U 22101V   23174.74617463  .00000810  00000-0  68931-4 0  9994,2 53546  53.2147 177.6811 0000953  84.0156 276.0945 15.08843318 47004,6917.87,95.437,540.395,539.076,0.0
